SL-16 R/B               
1 25400U 98043G   26043.89371557  .00000069  00000+0  47885-4 0  9995
2 25400  98.8210 357.0879 0010977  86.6257 273.6178 14.26043814435456
SL-16 R/B               
1 25407U 98045B   26043.92222916  .00000264  00000+0  15764-3 0  9999
2 25407  71.0085 233.6583 0005557  53.8342 306.3294 14.16186612423594
ISS (ZARYA)             
1 25544U 98067A   26044.11739808  .00007930  00000+0  15398-3 0  9990
2 25544  51.6313 193.8240 0011114  93.1734 267.0526 15.48574923552528
CZ-4B R/B               
1 25732U 99025C   26044.11413583  .00000053  00000+0  46245-4 0  9998
2 25732  98.6676  88.9719 0037975  56.7169   2.2813 14.18260304384684
OKEAN-O                 
1 25860U 99039A   26044.18281917  .00000694  00000+0  98014-4 0  9998
2 25860  97.9499 104.3168 0001840  82.9136 277.2285 14.80294615430768
SL-16 R/B               
1 25861U 99039B   26044.11830748  .00000610  00000+0  84230-4 0  9997
2 25861  98.0021 103.2446 0014287 342.4776  17.5942 14.81696350433224
DELTA 2 R/B             
1 25876U 99041E   26044.15957415  .00002121  00000+0  37857-3 0  9992
2 25876  51.7656  39.2400 0502263 275.9712  78.4216 14.11741364359567
HELIOS 1B               
1 25977U 99064A   26044.23071928  .00001936  00000+0  21952-3 0  9996
2 25977  98.1724 305.7523 0002197 109.2156 250.9297 14.87595330681623
TERRA                   
1 25994U 99068A   26044.26603226  .00000511  00000+0  11323-3 0  9993
2 25994  97.9647  98.6272 0001032 238.6066 186.2612 14.60987924391519
SL-16 R/B               
1 26070U 00006B   26044.28443311 -.00000228  00000+0 -91621-4 0  9999
2 26070  71.0029 149.1525 0018190 224.7136 135.2522 14.15819614345100
TITAN 4B R/B            
1 26474U 00047B   26044.24541740  .00003248  00000+0  20817-3 0  9994
2 26474  67.9893 109.2370 0037034  65.4115 295.0885 15.09352462389226
ENVISAT                 
1 27386U 02009A   26044.29691764  .00000146  00000+0  60985-4 0  9999
2 27386  98.3686 358.4816 0001336  88.2323  81.1136 14.39027735255667
