CCSDS_OMM_VERS = 2.0
CREATION_DATE  = 
ORIGINATOR     = 

OBJECT_NAME    = SL-16 R/B
OBJECT_ID      = 1998-043G
CENTER_NAME    = EARTH
REF_FRAME      = TEME
TIME_SYSTEM    = UTC
MEAN_ELEMENT_THEORY = SGP/SGP4

EPOCH          = 2026-02-12T21:26:57.025248
MEAN_MOTION    = 14.26043814
ECCENTRICITY   = .0010977
INCLINATION    = 98.8210
RA_OF_ASC_NODE = 357.0879
ARG_OF_PERICENTER = 86.6257
MEAN_ANOMALY   = 273.6178

EPHEMERIS_TYPE = 0
CLASSIFICATION_TYPE = U
NORAD_CAT_ID   = 25400
ELEMENT_SET_NO = 999
REV_AT_EPOCH   = 43545
BSTAR          = .47885E-4
MEAN_MOTION_DOT = .69E-6
MEAN_MOTION_DDOT = 0

CCSDS_OMM_VERS = 2.0
CREATION_DATE  = 
ORIGINATOR     = 

OBJECT_NAME    = SL-16 R/B
OBJECT_ID      = 1998-045B
CENTER_NAME    = EARTH
REF_FRAME      = TEME
TIME_SYSTEM    = UTC
MEAN_ELEMENT_THEORY = SGP/SGP4

EPOCH          = 2026-02-12T22:08:00.599424
MEAN_MOTION    = 14.16186612
ECCENTRICITY   = .0005557
INCLINATION    = 71.0085
RA_OF_ASC_NODE = 233.6583
ARG_OF_PERICENTER = 53.8342
MEAN_ANOMALY   = 306.3294

EPHEMERIS_TYPE = 0
CLASSIFICATION_TYPE = U
NORAD_CAT_ID   = 25407
ELEMENT_SET_NO = 999
REV_AT_EPOCH   = 42359
BSTAR          = .15764E-3
MEAN_MOTION_DOT = .264E-5
MEAN_MOTION_DDOT = 0

CCSDS_OMM_VERS = 2.0
CREATION_DATE  = 
ORIGINATOR     = 

OBJECT_NAME    = ISS (ZARYA)
OBJECT_ID      = 1998-067A
CENTER_NAME    = EARTH
REF_FRAME      = TEME
TIME_SYSTEM    = UTC
MEAN_ELEMENT_THEORY = SGP/SGP4

EPOCH          = 2026-02-13T02:49:03.194112
MEAN_MOTION    = 15.48574923
ECCENTRICITY   = .00111144
INCLINATION    = 51.6313
RA_OF_ASC_NODE = 193.8240
ARG_OF_PERICENTER = 93.1734
MEAN_ANOMALY   = 267.0526

EPHEMERIS_TYPE = 0
CLASSIFICATION_TYPE = U
NORAD_CAT_ID   = 25544
ELEMENT_SET_NO = 999
REV_AT_EPOCH   = 55252
BSTAR          = .15398026E-3
MEAN_MOTION_DOT = .793E-4
MEAN_MOTION_DDOT = 0

CCSDS_OMM_VERS = 2.0
CREATION_DATE  = 
ORIGINATOR     = 

OBJECT_NAME    = CZ-4B R/B
OBJECT_ID      = 1999-025C
CENTER_NAME    = EARTH
REF_FRAME      = TEME
TIME_SYSTEM    = UTC
MEAN_ELEMENT_THEORY = SGP/SGP4

EPOCH          = 2026-02-13T02:44:21.335712
MEAN_MOTION    = 14.18260304
ECCENTRICITY   = .00379759
INCLINATION    = 98.6676
RA_OF_ASC_NODE = 88.9719
ARG_OF_PERICENTER = 56.7169
MEAN_ANOMALY   = 2.2813

EPHEMERIS_TYPE = 0
CLASSIFICATION_TYPE = U
NORAD_CAT_ID   = 25732
ELEMENT_SET_NO = 999
REV_AT_EPOCH   = 38468
BSTAR          = .46244958E-4
MEAN_MOTION_DOT = .53E-6
MEAN_MOTION_DDOT = 0

CCSDS_OMM_VERS = 2.0
CREATION_DATE  = 
ORIGINATOR     = 

OBJECT_NAME    = OKEAN-O
OBJECT_ID      = 1999-039A
CENTER_NAME    = EARTH
REF_FRAME      = TEME
TIME_SYSTEM    = UTC
MEAN_ELEMENT_THEORY = SGP/SGP4

EPOCH          = 2026-02-13T04:23:15.576288
MEAN_MOTION    = 14.80294615
ECCENTRICITY   = .000184
INCLINATION    = 97.9499
RA_OF_ASC_NODE = 104.3168
ARG_OF_PERICENTER = 82.9136
MEAN_ANOMALY   = 277.2285

EPHEMERIS_TYPE = 0
CLASSIFICATION_TYPE = U
NORAD_CAT_ID   = 25860
ELEMENT_SET_NO = 999
REV_AT_EPOCH   = 43076
BSTAR          = .98013696E-4
MEAN_MOTION_DOT = .694E-5
MEAN_MOTION_DDOT = 0

CCSDS_OMM_VERS = 2.0
CREATION_DATE  = 
ORIGINATOR     = 

OBJECT_NAME    = SL-16 R/B
OBJECT_ID      = 1999-039B
CENTER_NAME    = EARTH
REF_FRAME      = TEME
TIME_SYSTEM    = UTC
MEAN_ELEMENT_THEORY = SGP/SGP4

EPOCH          = 2026-02-13T02:50:21.766272
MEAN_MOTION    = 14.81696350
ECCENTRICITY   = .00142873
INCLINATION    = 98.0021
RA_OF_ASC_NODE = 103.2446
ARG_OF_PERICENTER = 342.4776
MEAN_ANOMALY   = 17.5942

EPHEMERIS_TYPE = 0
CLASSIFICATION_TYPE = U
NORAD_CAT_ID   = 25861
ELEMENT_SET_NO = 999
REV_AT_EPOCH   = 43322
BSTAR          = .84230328E-4
MEAN_MOTION_DOT = .61E-5
MEAN_MOTION_DDOT = 0

CCSDS_OMM_VERS = 2.0
CREATION_DATE  = 
ORIGINATOR     = 

OBJECT_NAME    = DELTA 2 R/B
OBJECT_ID      = 1999-041E
CENTER_NAME    = EARTH
REF_FRAME      = TEME
TIME_SYSTEM    = UTC
MEAN_ELEMENT_THEORY = SGP/SGP4

EPOCH          = 2026-02-13T03:49:47.206560
MEAN_MOTION    = 14.11741364
ECCENTRICITY   = .05022632
INCLINATION    = 51.7656
RA_OF_ASC_NODE = 39.2400
ARG_OF_PERICENTER = 275.9712
MEAN_ANOMALY   = 78.4216

EPHEMERIS_TYPE = 0
CLASSIFICATION_TYPE = U
NORAD_CAT_ID   = 25876
ELEMENT_SET_NO = 999
REV_AT_EPOCH   = 35956
BSTAR          = .37856507E-3
MEAN_MOTION_DOT = .2121E-4
MEAN_MOTION_DDOT = 0

CCSDS_OMM_VERS = 2.0
CREATION_DATE  = 
ORIGINATOR     = 

OBJECT_NAME    = HELIOS 1B
OBJECT_ID      = 1999-064A
CENTER_NAME    = EARTH
REF_FRAME      = TEME
TIME_SYSTEM    = UTC
MEAN_ELEMENT_THEORY = SGP/SGP4

EPOCH          = 2026-02-13T05:32:14.145792
MEAN_MOTION    = 14.87595330
ECCENTRICITY   = .00021978
INCLINATION    = 98.1724
RA_OF_ASC_NODE = 305.7523
ARG_OF_PERICENTER = 109.2156
MEAN_ANOMALY   = 250.9297

EPHEMERIS_TYPE = 0
CLASSIFICATION_TYPE = U
NORAD_CAT_ID   = 25977
ELEMENT_SET_NO = 999
REV_AT_EPOCH   = 68162
BSTAR          = .21952097E-3
MEAN_MOTION_DOT = .1936E-4
MEAN_MOTION_DDOT = 0

CCSDS_OMM_VERS = 2.0
CREATION_DATE  = 
ORIGINATOR     = 

OBJECT_NAME    = TERRA
OBJECT_ID      = 1999-068A
CENTER_NAME    = EARTH
REF_FRAME      = TEME
TIME_SYSTEM    = UTC
MEAN_ELEMENT_THEORY = SGP/SGP4

EPOCH          = 2026-02-13T06:23:05.187264
MEAN_MOTION    = 14.60987924
ECCENTRICITY   = .00010322
INCLINATION    = 97.9647
RA_OF_ASC_NODE = 98.6272
ARG_OF_PERICENTER = 238.6066
MEAN_ANOMALY   = 186.2612

EPHEMERIS_TYPE = 0
CLASSIFICATION_TYPE = U
NORAD_CAT_ID   = 25994
ELEMENT_SET_NO = 999
REV_AT_EPOCH   = 39151
BSTAR          = .11322698E-3
MEAN_MOTION_DOT = .511E-5
MEAN_MOTION_DDOT = 0

CCSDS_OMM_VERS = 2.0
CREATION_DATE  = 
ORIGINATOR     = 

OBJECT_NAME    = SL-16 R/B
OBJECT_ID      = 2000-006B
CENTER_NAME    = EARTH
REF_FRAME      = TEME
TIME_SYSTEM    = UTC
MEAN_ELEMENT_THEORY = SGP/SGP4

EPOCH          = 2026-02-13T06:49:35.020704
MEAN_MOTION    = 14.15819614
ECCENTRICITY   = .001819
INCLINATION    = 71.0029
RA_OF_ASC_NODE = 149.1525
ARG_OF_PERICENTER = 224.7136
MEAN_ANOMALY   = 135.2522

EPHEMERIS_TYPE = 0
CLASSIFICATION_TYPE = U
NORAD_CAT_ID   = 26070
ELEMENT_SET_NO = 999
REV_AT_EPOCH   = 34510
BSTAR          = -.9162062E-4
MEAN_MOTION_DOT = -.228E-5
MEAN_MOTION_DDOT = 0

CCSDS_OMM_VERS = 2.0
CREATION_DATE  = 
ORIGINATOR     = 

OBJECT_NAME    = TITAN 4B R/B
OBJECT_ID      = 2000-047B
CENTER_NAME    = EARTH
REF_FRAME      = TEME
TIME_SYSTEM    = UTC
MEAN_ELEMENT_THEORY = SGP/SGP4

EPOCH          = 2026-02-13T05:53:24.063360
MEAN_MOTION    = 15.09352462
ECCENTRICITY   = .00370344
INCLINATION    = 67.9893
RA_OF_ASC_NODE = 109.2370
ARG_OF_PERICENTER = 65.4115
MEAN_ANOMALY   = 295.0885

EPHEMERIS_TYPE = 0
CLASSIFICATION_TYPE = U
NORAD_CAT_ID   = 26474
ELEMENT_SET_NO = 999
REV_AT_EPOCH   = 38922
BSTAR          = .2081681E-3
MEAN_MOTION_DOT = .3248E-4
MEAN_MOTION_DDOT = 0

CCSDS_OMM_VERS = 2.0
CREATION_DATE  = 
ORIGINATOR     = 

OBJECT_NAME    = ENVISAT
OBJECT_ID      = 2002-009A
CENTER_NAME    = EARTH
REF_FRAME      = TEME
TIME_SYSTEM    = UTC
MEAN_ELEMENT_THEORY = SGP/SGP4

EPOCH          = 2026-02-13T07:07:33.684096
MEAN_MOTION    = 14.39027735
ECCENTRICITY   = .00013364
INCLINATION    = 98.3686
RA_OF_ASC_NODE = 358.4816
ARG_OF_PERICENTER = 88.2323
MEAN_ANOMALY   = 81.1136

EPHEMERIS_TYPE = 0
CLASSIFICATION_TYPE = U
NORAD_CAT_ID   = 27386
ELEMENT_SET_NO = 999
REV_AT_EPOCH   = 25566
BSTAR          = .60985388E-4
MEAN_MOTION_DOT = .146E-5
MEAN_MOTION_DDOT = 0

